{
  "type": "FeatureCollection",
  "features": [
    {
      "type": "Feature",
      "properties": {
        "norad_id": 24946,
        "name": "IRIDIUM 33",
        "group": "iridium-33-debris",
        "lat": 36.195830590781696,
        "lon": 69.79993376504973,
        "alt_km": 777.2124512433693,
        "timestamp": "2025-12-15T07:02:37.999709+00:00",
        "meta_object_name": "IRIDIUM 33",
        "meta_object_id": "1997-051C",
        "meta_epoch": "2025-12-14T17:29:14.036352",
        "meta_mean_motion": 14.35039008,
        "meta_eccentricity": 0.00072638,
        "meta_inclination": 86.387,
        "meta_ra_of_asc_node": 67.3869,
        "meta_arg_of_pericenter": 193.371,
        "meta_mean_anomaly": 166.7294,
        "meta_ephemeris_type": 0,
        "meta_classification_type": "U",
        "meta_norad_cat_id": 24946,
        "meta_element_set_no": 999,
        "meta_rev_at_epoch": 47863,
        "meta_bstar": 0.00013602476,
        "meta_mean_motion_dot": 4.07e-06,
        "meta_mean_motion_ddot": 0,
        "tle_line1": "1 24946U 97051C   25348.72863468  .00000407  00000+0  13602-3 0  9998",
        "tle_line2": "2 24946  86.3870  67.3869 0007263 193.3710 166.7294 14.35039008478636"
      },
      "geometry": {
        "type": "Point",
        "coordinates": [
          69.79993376504973,
          36.195830590781696
        ]
      }
    },
    {
      "type": "Feature",
      "properties": {
        "norad_id": 33773,
        "name": "IRIDIUM 33 DEB",
        "group": "iridium-33-debris",
        "lat": 68.41511458154432,
        "lon": 68.66168265546949,
        "alt_km": 738.0766861618504,
        "timestamp": "2025-12-15T07:02:37.999734+00:00",
        "meta_object_name": "IRIDIUM 33 DEB",
        "meta_object_id": "1997-051L",
        "meta_epoch": "2025-12-14T17:24:53.377920",
        "meta_mean_motion": 14.43261906,
        "meta_eccentricity": 0.00126512,
        "meta_inclination": 86.4008,
        "meta_ra_of_asc_node": 59.7479,
        "meta_arg_of_pericenter": 140.5859,
        "meta_mean_anomaly": 219.6265,
        "meta_ephemeris_type": 0,
        "meta_classification_type": "U",
        "meta_norad_cat_id": 33773,
        "meta_element_set_no": 999,
        "meta_rev_at_epoch": 88376,
        "meta_bstar": 0.00036765515,
        "meta_mean_motion_dot": 1.258e-05,
        "meta_mean_motion_ddot": 0,
        "tle_line1": "1 33773U 97051L   25348.72561780  .00001258  00000+0  36766-3 0  9999",
        "tle_line2": "2 33773  86.4008  59.7479 0012651 140.5859 219.6265 14.43261906883768"
      },
      "geometry": {
        "type": "Point",
        "coordinates": [
          68.66168265546949,
          68.41511458154432
        ]
      }
    },
    {
      "type": "Feature",
      "properties": {
        "norad_id": 33775,
        "name": "IRIDIUM 33 DEB",
        "group": "iridium-33-debris",
        "lat": 43.872535170822864,
        "lon": -135.0416759945676,
        "alt_km": 739.8672770754802,
        "timestamp": "2025-12-15T07:02:37.999749+00:00",
        "meta_object_name": "IRIDIUM 33 DEB",
        "meta_object_id": "1997-051N",
        "meta_epoch": "2025-12-14T16:12:17.510688",
        "meta_mean_motion": 14.41473003,
        "meta_eccentricity": 0.00144956,
        "meta_inclination": 86.3636,
        "meta_ra_of_asc_node": 48.7274,
        "meta_arg_of_pericenter": 148.7238,
        "meta_mean_anomaly": 20.7741,
        "meta_ephemeris_type": 0,
        "meta_classification_type": "U",
        "meta_norad_cat_id": 33775,
        "meta_element_set_no": 999,
        "meta_rev_at_epoch": 88168,
        "meta_bstar": 0.00037572543,
        "meta_mean_motion_dot": 1.24e-05,
        "meta_mean_motion_ddot": 0,
        "tle_line1": "1 33775U 97051N   25348.67520267  .00001240  00000+0  37573-3 0  9998",
        "tle_line2": "2 33775  86.3636  48.7274 0014495 148.7238  20.7741 14.41473003881686"
      },
      "geometry": {
        "type": "Point",
        "coordinates": [
          -135.0416759945676,
          43.872535170822864
        ]
      }
    },
    {
      "type": "Feature",
      "properties": {
        "norad_id": 33776,
        "name": "IRIDIUM 33 DEB",
        "group": "iridium-33-debris",
        "lat": -24.027115563025095,
        "lon": 78.09702369869088,
        "alt_km": 779.2943195417884,
        "timestamp": "2025-12-15T07:02:37.999762+00:00",
        "meta_object_name": "IRIDIUM 33 DEB",
        "meta_object_id": "1997-051P",
        "meta_epoch": "2025-12-14T20:01:35.700672",
        "meta_mean_motion": 14.38238599,
        "meta_eccentricity": 0.00145995,
        "meta_inclination": 86.4038,
        "meta_ra_of_asc_node": 79.8963,
        "meta_arg_of_pericenter": 183.4341,
        "meta_mean_anomaly": 297.2093,
        "meta_ephemeris_type": 0,
        "meta_classification_type": "U",
        "meta_norad_cat_id": 33776,
        "meta_element_set_no": 999,
        "meta_rev_at_epoch": 88112,
        "meta_bstar": 0.00029974719,
        "meta_mean_motion_dot": 9.31e-06,
        "meta_mean_motion_ddot": 0,
        "tle_line1": "1 33776U 97051P   25348.83444098  .00000931  00000+0  29975-3 0  9997",
        "tle_line2": "2 33776  86.4038  79.8963 0014599 183.4341 297.2093 14.38238599881125"
      },
      "geometry": {
        "type": "Point",
        "coordinates": [
          78.09702369869088,
          -24.027115563025095
        ]
      }
    },
    {
      "type": "Feature",
      "properties": {
        "norad_id": 33777,
        "name": "IRIDIUM 33 DEB",
        "group": "iridium-33-debris",
        "lat": -76.21691450132026,
        "lon": 19.13278202038406,
        "alt_km": 712.0844440346336,
        "timestamp": "2025-12-15T07:02:37.999774+00:00",
        "meta_object_name": "IRIDIUM 33 DEB",
        "meta_object_id": "1997-051Q",
        "meta_epoch": "2025-12-14T13:14:51.391680",
        "meta_mean_motion": 14.55631673,
        "meta_eccentricity": 0.0005272,
        "meta_inclination": 86.3789,
        "meta_ra_of_asc_node": 34.4153,
        "meta_arg_of_pericenter": 240.6943,
        "meta_mean_anomaly": 119.3738,
        "meta_ephemeris_type": 0,
        "meta_classification_type": "U",
        "meta_norad_cat_id": 33777,
        "meta_element_set_no": 999,
        "meta_rev_at_epoch": 88560,
        "meta_bstar": 0.00079585405,
        "meta_mean_motion_dot": 3.493e-05,
        "meta_mean_motion_ddot": 0,
        "tle_line1": "1 33777U 97051Q   25348.55198370  .00003493  00000+0  79585-3 0  9994",
        "tle_line2": "2 33777  86.3789  34.4153 0005272 240.6943 119.3738 14.55631673885604"
      },
      "geometry": {
        "type": "Point",
        "coordinates": [
          19.13278202038406,
          -76.21691450132026
        ]
      }
    },
    {
      "type": "Feature",
      "properties": {
        "norad_id": 33850,
        "name": "IRIDIUM 33 DEB",
        "group": "iridium-33-debris",
        "lat": 56.74410060092111,
        "lon": -156.5169889810433,
        "alt_km": 738.3731571559674,
        "timestamp": "2025-12-15T07:02:37.999786+00:00",
        "meta_object_name": "IRIDIUM 33 DEB",
        "meta_object_id": "1997-051T",
        "meta_epoch": "2025-12-14T16:04:32.270016",
        "meta_mean_motion": 14.42150291,
        "meta_eccentricity": 0.00124314,
        "meta_inclination": 86.3417,
        "meta_ra_of_asc_node": 29.3498,
        "meta_arg_of_pericenter": 155.1516,
        "meta_mean_anomaly": 332.0237,
        "meta_ephemeris_type": 0,
        "meta_classification_type": "U",
        "meta_norad_cat_id": 33850,
        "meta_element_set_no": 999,
        "meta_rev_at_epoch": 88180,
        "meta_bstar": 0.00034667666,
        "meta_mean_motion_dot": 1.161e-05,
        "meta_mean_motion_ddot": 0,
        "tle_line1": "1 33850U 97051T   25348.66981794  .00001161  00000+0  34668-3 0  9991",
        "tle_line2": "2 33850  86.3417  29.3498 0012431 155.1516 332.0237 14.42150291881804"
      },
      "geometry": {
        "type": "Point",
        "coordinates": [
          -156.5169889810433,
          56.74410060092111
        ]
      }
    },
    {
      "type": "Feature",
      "properties": {
        "norad_id": 33853,
        "name": "IRIDIUM 33 DEB",
        "group": "iridium-33-debris",
        "lat": 70.93518569918153,
        "lon": 157.0092136445967,
        "alt_km": 961.5347176219593,
        "timestamp": "2025-12-15T07:02:37.999798+00:00",
        "meta_object_name": "IRIDIUM 33 DEB",
        "meta_object_id": "1997-051W",
        "meta_epoch": "2025-12-14T12:15:46.627776",
        "meta_mean_motion": 13.99075602,
        "meta_eccentricity": 0.02069984,
        "meta_inclination": 85.9995,
        "meta_ra_of_asc_node": 349.0348,
        "meta_arg_of_pericenter": 230.3282,
        "meta_mean_anomaly": 261.3777,
        "meta_ephemeris_type": 0,
        "meta_classification_type": "U",
        "meta_norad_cat_id": 33853,
        "meta_element_set_no": 999,
        "meta_rev_at_epoch": 85370,
        "meta_bstar": 0.0020195005,
        "meta_mean_motion_dot": 3.527e-05,
        "meta_mean_motion_ddot": 0,
        "tle_line1": "1 33853U 97051W   25348.51095634  .00003527  00000+0  20195-2 0  9994",
        "tle_line2": "2 33853  85.9995 349.0348 0206998 230.3282 261.3777 13.99075602853702"
      },
      "geometry": {
        "type": "Point",
        "coordinates": [
          157.0092136445967,
          70.93518569918153
        ]
      }
    }
  ]
}